{"fetched_at":"2026-03-30T06:02:59Z","count":15439,"tles":[{"name":"STARLINK-33773","line1":"1 63713U 25087S   26087.83681692  .00015955  00000+0  54953-3 0  9991","line2":"2 63713  53.1601 130.4377 0001380  78.5592 281.5564 15.30208417 52134","category":"Starlink"}]}